[{"OBJECT_NAME":"ONEWEB-0092","OBJECT_ID":"2020-020P","EPOCH":"2025-12-04T16:34:46.347744","MEAN_MOTION":13.11414612,"ECCENTRICITY":0.0001475,"INCLINATION":87.8867,"RA_OF_ASC_NODE":59.7926,"ARG_OF_PERICENTER":108.4961,"MEAN_ANOMALY":251.6328,"EPHEMERIS_TYPE":0,"CLASSIFICATION_TYPE":"U","NORAD_CAT_ID":45437,"ELEMENT_SET_NO":999,"REV_AT_EPOCH":27729,"BSTAR":0.0012193,"MEAN_MOTION_DOT":4.45e-6,"MEAN_MOTION_DDOT":0},{"OBJECT_NAME":"ONEWEB-0085","OBJECT_ID":"2020-020Q","EPOCH":"2025-12-04T06:28:02.537184","MEAN_MOTION":13.11419911,"ECCENTRICITY":0.0001661,"INCLINATION":87.8863,"RA_OF_ASC_NODE":59.8855,"ARG_OF_PERICENTER":104.5046,"MEAN_ANOMALY":255.6267,"EPHEMERIS_TYPE":0,"CLASSIFICATION_TYPE":"U","NORAD_CAT_ID":45438,"ELEMENT_SET_NO":999,"REV_AT_EPOCH":27712,"BSTAR":-0.00084876,"MEAN_MOTION_DOT":-2.88e-6,"MEAN_MOTION_DDOT":0},{"OBJECT_NAME":"ONEWEB-0096","OBJECT_ID":"2020-020R","EPOCH":"2025-12-04T15:39:49.491360","MEAN_MOTION":13.1141935,"ECCENTRICITY":0.0001852,"INCLINATION":87.8873,"RA_OF_ASC_NODE":59.7886,"ARG_OF_PERICENTER":105.2335,"MEAN_ANOMALY":254.8998,"EPHEMERIS_TYPE":0,"CLASSIFICATION_TYPE":"U","NORAD_CAT_ID":45439,"ELEMENT_SET_NO":999,"REV_AT_EPOCH":27716,"BSTAR":-0.00092662,"MEAN_MOTION_DOT":-3.16e-6,"MEAN_MOTION_DDOT":0},{"OBJECT_NAME":"ONEWEB-0037","OBJECT_ID":"2020-020S","EPOCH":"2025-12-04T15:11:44.562624","MEAN_MOTION":13.1141622,"ECCENTRICITY":0.0001599,"INCLINATION":87.8878,"RA_OF_ASC_NODE":59.7621,"ARG_OF_PERICENTER":106.2672,"MEAN_ANOMALY":253.8631,"EPHEMERIS_TYPE":0,"CLASSIFICATION_TYPE":"U","NORAD_CAT_ID":45440,"ELEMENT_SET_NO":999,"REV_AT_EPOCH":27719,"BSTAR":-0.0010311,"MEAN_MOTION_DOT":-3.53e-6,"MEAN_MOTION_DDOT":0},{"OBJECT_NAME":"ONEWEB-0042","OBJECT_ID":"2020-020T","EPOCH":"2025-12-04T15:24:57.953088","MEAN_MOTION":13.11417772,"ECCENTRICITY":0.0001674,"INCLINATION":87.8869,"RA_OF_ASC_NODE":59.7906,"ARG_OF_PERICENTER":108.6408,"MEAN_ANOMALY":251.4902,"EPHEMERIS_TYPE":0,"CLASSIFICATION_TYPE":"U","NORAD_CAT_ID":45441,"ELEMENT_SET_NO":999,"REV_AT_EPOCH":27716,"BSTAR":-0.0015391,"MEAN_MOTION_DOT":-5.33e-6,"MEAN_MOTION_DDOT":0},{"OBJECT_NAME":"ONEWEB-0098","OBJECT_ID":"2020-020U","EPOCH":"2025-12-04T15:19:03.536832","MEAN_MOTION":13.11414539,"ECCENTRICITY":0.0001696,"INCLINATION":87.8867,"RA_OF_ASC_NODE":59.8034,"ARG_OF_PERICENTER":101.1226,"MEAN_ANOMALY":259.0092,"EPHEMERIS_TYPE":0,"CLASSIFICATION_TYPE":"U","NORAD_CAT_ID":45442,"ELEMENT_SET_NO":999,"REV_AT_EPOCH":27714,"BSTAR":-0.0014132,"MEAN_MOTION_DOT":-4.88e-6,"MEAN_MOTION_DDOT":0},{"OBJECT_NAME":"ONEWEB-0055","OBJECT_ID":"2020-020V","EPOCH":"2025-12-04T16:44:31.795008","MEAN_MOTION":13.11415892,"ECCENTRICITY":0.0001641,"INCLINATION":87.8865,"RA_OF_ASC_NODE":59.7922,"ARG_OF_PERICENTER":101.5058,"MEAN_ANOMALY":258.6254,"EPHEMERIS_TYPE":0,"CLASSIFICATION_TYPE":"U","NORAD_CAT_ID":45443,"ELEMENT_SET_NO":999,"REV_AT_EPOCH":27712,"BSTAR":0.00053376,"MEAN_MOTION_DOT":2.02e-6,"MEAN_MOTION_DDOT":0},{"OBJECT_NAME":"ONEWEB-0093","OBJECT_ID":"2020-020W","EPOCH":"2025-12-04T16:09:20.634336","MEAN_MOTION":13.114185,"ECCENTRICITY":0.0001943,"INCLINATION":87.8872,"RA_OF_ASC_NODE":59.7838,"ARG_OF_PERICENTER":114.6153,"MEAN_ANOMALY":245.5177,"EPHEMERIS_TYPE":0,"CLASSIFICATION_TYPE":"U","NORAD_CAT_ID":45444,"ELEMENT_SET_NO":999,"REV_AT_EPOCH":27718,"BSTAR":0.0012084,"MEAN_MOTION_DOT":4.41e-6,"MEAN_MOTION_DDOT":0},{"OBJECT_NAME":"ONEWEB-0029","OBJECT_ID":"2020-020X","EPOCH":"2025-12-04T16:32:19.987008","MEAN_MOTION":13.11414711,"ECCENTRICITY":0.0001807,"INCLINATION":87.8869,"RA_OF_ASC_NODE":59.7932,"ARG_OF_PERICENTER":104.8434,"MEAN_ANOMALY":255.2894,"EPHEMERIS_TYPE":0,"CLASSIFICATION_TYPE":"U","NORAD_CAT_ID":45445,"ELEMENT_SET_NO":999,"REV_AT_EPOCH":27716,"BSTAR":0.00137,"MEAN_MOTION_DOT":4.98e-6,"MEAN_MOTION_DDOT":0},{"OBJECT_NAME":"ONEWEB-0068","OBJECT_ID":"2020-020Y","EPOCH":"2025-12-04T16:08:57.341760","MEAN_MOTION":13.11418375,"ECCENTRICITY":0.000183,"INCLINATION":87.8873,"RA_OF_ASC_NODE":59.7855,"ARG_OF_PERICENTER":105.6631,"MEAN_ANOMALY":254.4699,"EPHEMERIS_TYPE":0,"CLASSIFICATION_TYPE":"U","NORAD_CAT_ID":45446,"ELEMENT_SET_NO":999,"REV_AT_EPOCH":27710,"BSTAR":0.0011673,"MEAN_MOTION_DOT":4.26e-6,"MEAN_MOTION_DDOT":0},{"OBJECT_NAME":"ONEWEB-0046","OBJECT_ID":"2020-020Z","EPOCH":"2025-12-04T15:56:55.252032","MEAN_MOTION":13.11419755,"ECCENTRICITY":0.0001698,"INCLINATION":87.8875,"RA_OF_ASC_NODE":59.795,"ARG_OF_PERICENTER":112.1575,"MEAN_ANOMALY":247.9733,"EPHEMERIS_TYPE":0,"CLASSIFICATION_TYPE":"U","NORAD_CAT_ID":45447,"ELEMENT_SET_NO":999,"REV_AT_EPOCH":27711,"BSTAR":0.00037069,"MEAN_MOTION_DOT":1.44e-6,"MEAN_MOTION_DDOT":0},{"OBJECT_NAME":"ONEWEB-0063","OBJECT_ID":"2020-020AA","EPOCH":"2025-12-04T16:38:25.713024","MEAN_MOTION":13.11413389,"ECCENTRICITY":0.0001558,"INCLINATION":87.8868,"RA_OF_ASC_NODE":59.7872,"ARG_OF_PERICENTER":111.6039,"MEAN_ANOMALY":248.5255,"EPHEMERIS_TYPE":0,"CLASSIFICATION_TYPE":"U","NORAD_CAT_ID":45448,"ELEMENT_SET_NO":999,"REV_AT_EPOCH":27720,"BSTAR":0.00096008,"MEAN_MOTION_DOT":3.53e-6,"MEAN_MOTION_DDOT":0},{"OBJECT_NAME":"ONEWEB-0019","OBJECT_ID":"2020-020AB","EPOCH":"2025-12-04T15:58:52.029408","MEAN_MOTION":13.11602114,"ECCENTRICITY":0.0002021,"INCLINATION":87.8857,"RA_OF_ASC_NODE":59.8024,"ARG_OF_PERICENTER":97.745,"MEAN_ANOMALY":262.3907,"EPHEMERIS_TYPE":0,"CLASSIFICATION_TYPE":"U","NORAD_CAT_ID":45449,"ELEMENT_SET_NO":999,"REV_AT_EPOCH":27704,"BSTAR":0.00047192,"MEAN_MOTION_DOT":1.8e-6,"MEAN_MOTION_DDOT":0},{"OBJECT_NAME":"ONEWEB-0094","OBJECT_ID":"2020-020AC","EPOCH":"2025-12-04T15:42:26.218368","MEAN_MOTION":13.17651504,"ECCENTRICITY":0.0001822,"INCLINATION":87.9127,"RA_OF_ASC_NODE":44.5166,"ARG_OF_PERICENTER":99.4407,"MEAN_ANOMALY":260.693,"EPHEMERIS_TYPE":0,"CLASSIFICATION_TYPE":"U","NORAD_CAT_ID":45450,"ELEMENT_SET_NO":999,"REV_AT_EPOCH":28069,"BSTAR":2.5801e-5,"MEAN_MOTION_DOT":2.3e-7,"MEAN_MOTION_DDOT":0},{"OBJECT_NAME":"ONEWEB-0087","OBJECT_ID":"2020-020AD","EPOCH":"2025-12-04T11:23:16.240128","MEAN_MOTION":13.11415643,"ECCENTRICITY":0.0001977,"INCLINATION":87.8878,"RA_OF_ASC_NODE":59.7883,"ARG_OF_PERICENTER":106.2928,"MEAN_ANOMALY":253.8418,"EPHEMERIS_TYPE":0,"CLASSIFICATION_TYPE":"U","NORAD_CAT_ID":45451,"ELEMENT_SET_NO":999,"REV_AT_EPOCH":27706,"BSTAR":-0.00037062,"MEAN_MOTION_DOT":-1.19e-6,"MEAN_MOTION_DDOT":0},{"OBJECT_NAME":"ONEWEB-0082","OBJECT_ID":"2020-020AE","EPOCH":"2025-12-04T14:58:19.396704","MEAN_MOTION":13.11415443,"ECCENTRICITY":0.0001894,"INCLINATION":87.8879,"RA_OF_ASC_NODE":59.7839,"ARG_OF_PERICENTER":105.2326,"MEAN_ANOMALY":254.9012,"EPHEMERIS_TYPE":0,"CLASSIFICATION_TYPE":"U","NORAD_CAT_ID":45452,"ELEMENT_SET_NO":999,"REV_AT_EPOCH":27717,"BSTAR":3.4547e-5,"MEAN_MOTION_DOT":2.5e-7,"MEAN_MOTION_DDOT":0},{"OBJECT_NAME":"ONEWEB-0050","OBJECT_ID":"2020-020AF","EPOCH":"2025-12-04T12:16:01.760736","MEAN_MOTION":14.89454062,"ECCENTRICITY":0.0002598,"INCLINATION":88.9239,"RA_OF_ASC_NODE":259.7653,"ARG_OF_PERICENTER":11.7248,"MEAN_ANOMALY":348.4041,"EPHEMERIS_TYPE":0,"CLASSIFICATION_TYPE":"U","NORAD_CAT_ID":45453,"ELEMENT_SET_NO":999,"REV_AT_EPOCH":31139,"BSTAR":0.00087235,"MEAN_MOTION_DOT":8.318e-5,"MEAN_MOTION_DDOT":0}]
