ONEWEB-0092             
1 45437U 20020P   25338.69081421  .00000445  00000+0  12193-2 0  9999
2 45437  87.8867  59.7926 0001475 108.4961 251.6328 13.11414612277291
ONEWEB-0085             
1 45438U 20020Q   25338.26947381 -.00000288  00000+0 -84876-3 0  9994
2 45438  87.8863  59.8855 0001661 104.5046 255.6267 13.11419911277123
ONEWEB-0096             
1 45439U 20020R   25338.65265615 -.00000316  00000+0 -92662-3 0  9995
2 45439  87.8873  59.7886 0001852 105.2335 254.8998 13.11419350277162
ONEWEB-0037             
1 45440U 20020S   25338.63315466 -.00000353  00000+0 -10311-2 0  9996
2 45440  87.8878  59.7621 0001599 106.2672 253.8631 13.11416220277198
ONEWEB-0042             
1 45441U 20020T   25338.64233742 -.00000533  00000+0 -15391-2 0  9997
2 45441  87.8869  59.7906 0001674 108.6408 251.4902 13.11417772277167
ONEWEB-0098             
1 45442U 20020U   25338.63823538 -.00000488  00000+0 -14132-2 0  9996
2 45442  87.8867  59.8034 0001696 101.1226 259.0092 13.11414539277149
ONEWEB-0055             
1 45443U 20020V   25338.69759022  .00000202  00000+0  53376-3 0  9995
2 45443  87.8865  59.7922 0001641 101.5058 258.6254 13.11415892277126
ONEWEB-0093             
1 45444U 20020W   25338.67315549  .00000441  00000+0  12084-2 0  9991
2 45444  87.8872  59.7838 0001943 114.6153 245.5177 13.11418500277181
ONEWEB-0029             
1 45445U 20020X   25338.68912022  .00000498  00000+0  13700-2 0  9990
2 45445  87.8869  59.7932 0001807 104.8434 255.2894 13.11414711277167
ONEWEB-0068             
1 45446U 20020Y   25338.67288590  .00000426  00000+0  11673-2 0  9994
2 45446  87.8873  59.7855 0001830 105.6631 254.4699 13.11418375277109
ONEWEB-0046             
1 45447U 20020Z   25338.66452838  .00000144  00000+0  37069-3 0  9997
2 45447  87.8875  59.7950 0001698 112.1575 247.9733 13.11419755277110
ONEWEB-0063             
1 45448U 20020AA  25338.69335316  .00000353  00000+0  96008-3 0  9992
2 45448  87.8868  59.7872 0001558 111.6039 248.5255 13.11413389277203
ONEWEB-0019             
1 45449U 20020AB  25338.66587997  .00000180  00000+0  47192-3 0  9992
2 45449  87.8857  59.8024 0002021  97.7450 262.3907 13.11602114277045
ONEWEB-0094             
1 45450U 20020AC  25338.65447012  .00000023  00000+0  25801-4 0  9996
2 45450  87.9127  44.5166 0001822  99.4407 260.6930 13.17651504280690
ONEWEB-0087             
1 45451U 20020AD  25338.47449352 -.00000119  00000+0 -37062-3 0  9995
2 45451  87.8878  59.7883 0001977 106.2928 253.8418 13.11415643277061
ONEWEB-0082             
1 45452U 20020AE  25338.62383561  .00000025  00000+0  34547-4 0  9992
2 45452  87.8879  59.7839 0001894 105.2326 254.9012 13.11415443277175
ONEWEB-0050             
1 45453U 20020AF  25338.51113149  .00008318  00000+0  87235-3 0  9998
2 45453  88.9239 259.7653 0002598  11.7248 348.4041 14.89454062311390
